CS2                     
1 49262U 21088C   26068.73485932  .00018033  00000+0  56178-3 0  9999
2 49262  97.3928 134.2907 0011637  82.3491 277.9072 15.33255930245263
STARLINK-34074          
1 64099U 25110D   26068.26560855  .00009162  00000+0  32114-3 0  9997
2 64099  53.1611  29.0141 0001562  91.1646 268.9534 15.30194433 45813
